{
  "version": 0.6,
  "generator": "Overpass API 0.7.62.7 375dc00a",
  "osm3s": {
    "timestamp_osm_base": "2025-07-07T09:29:32Z",
    "copyright": "The data included in this document is from www.openstreetmap.org. The data is made available under ODbL."
  },
  "elements": [

{
  "type": "way",
  "id": 21957620,
  "nodes": [
    1136631242,
    499185536
  ],
  "tags": {
    "highway": "secondary",
    "name": "八重洲通り",
    "name:en": "Yaesu-dori Avenue",
    "name:es": "Calle Yaesu",
    "oneway": "yes",
    "ref": "408"
  }
},
{
  "type": "way",
  "id": 23260464,
  "nodes": [
    3961265818,
    10155199760,
    6242281132,
    251724499
  ],
  "tags": {
    "highway": "secondary",
    "name": "江戸通り",
    "name:en": "Edo-dori",
    "name:es": "Calle Edo",
    "name:ja": "江戸通り",
    "name:ja_kana": "えどどおり",
    "name:ja_rm": "Edo Dōri",
    "oneway": "yes",
    "ref": "407",
    "source": "Bing 2010",
    "surface": "paved"
  }
},
{
  "type": "way",
  "id": 23578870,
  "nodes": [
    258768566,
    589929557,
    6188927671,
    258768641,
    6188927675,
    11199203064,
    11199203065,
    6188927996,
    255334831
  ],
  "tags": {
    "highway": "secondary",
    "lanes": "4",
    "lit": "yes",
    "maxspeed": "40",
    "maxspeed:type": "sign",
    "name": "錦町有楽町線",
    "name:en": "Nishikicho-Yurakucho Line",
    "name:ja": "錦町有楽町線",
    "official_name": "特例都道錦町有楽町線",
    "ref": "402",
    "surface": "asphalt"
  }
},
{
  "type": "way",
  "id": 24061110,
  "nodes": [
    261023335,
    2743158895,
    1136641976
  ],
  "tags": {
    "highway": "secondary",
    "lanes": "4",
    "maxspeed": "60",
    "name": "外堀通り",
    "name:en": "Sotobori-dori Avenue",
    "name:es": "Calle Sotobori",
    "name:ja": "外堀通り",
    "name:ja_rm": "Sotobori Dōri",
    "oneway": "yes",
    "ref": "405",
    "surface": "asphalt"
  }
},
{
  "type": "way",
  "id": 59262030,
  "nodes": [
    1588249096,
    2912891582,
    727443849,
    8869066680
  ],
  "tags": {
    "highway": "secondary",
    "lanes": "7",
    "name": "丸の内室町線",
    "name:en": "Marunouchi-Muromachi Line",
    "name:ja": "丸の内室町線",
    "official_name": "特例都道丸の内室町線",
    "ref": "407",
    "surface": "asphalt"
  }
},
{
  "type": "way",
  "id": 59262032,
  "nodes": [
    2695200245,
    1072641451
  ],
  "tags": {
    "highway": "secondary",
    "lit": "yes",
    "name": "錦町有楽町線",
    "name:en": "Nishikicho-Yurakucho Line",
    "name:ja": "錦町有楽町線",
    "official_name": "特例都道錦町有楽町線",
    "ref": "402",
    "surface": "asphalt"
  }
},
{
  "type": "way",
  "id": 59262033,
  "nodes": [
    255334831,
    2695200245
  ],
  "tags": {
    "highway": "secondary",
    "lit": "yes",
    "name": "錦町有楽町線",
    "name:en": "Nishikicho-Yurakucho Line",
    "name:ja": "錦町有楽町線",
    "official_name": "特例都道錦町有楽町線",
    "ref": "402",
    "surface": "asphalt"
  }
},
{
  "type": "way",
  "id": 196380150,
  "nodes": [
    307385365,
    6244220944,
    10116551480,
    387769174,
    499185504
  ],
  "tags": {
    "highway": "secondary",
    "lanes": "4",
    "maxspeed": "60",
    "name": "外堀通り",
    "name:en": "Sotobori-dori Avenue",
    "name:es": "Calle Sotobori",
    "name:ja": "外堀通り",
    "name:ja_rm": "Sotobori Dōri",
    "oneway": "yes",
    "ref": "405",
    "surface": "asphalt"
  }
},
{
  "type": "way",
  "id": 199152223,
  "nodes": [
    1136641983,
    12550438582,
    2743158889,
    261023335
  ],
  "tags": {
    "highway": "secondary",
    "lanes": "2",
    "maxspeed": "50",
    "name": "八重洲通り",
    "name:en": "Yaesu-dori",
    "name:es": "Calle Yaesu",
    "oneway": "yes",
    "ref": "408",
    "surface": "asphalt"
  }
},
{
  "type": "way",
  "id": 203035366,
  "nodes": [
    2130007230,
    6242281131,
    12620211105,
    2392361019,
    2130007120,
    3961265816
  ],
  "tags": {
    "highway": "secondary",
    "name": "江戸通り",
    "name:en": "Edo-dori",
    "name:es": "Calle Edo",
    "name:ja": "江戸通り",
    "oneway": "yes",
    "ref": "407"
  }
},
{
  "type": "way",
  "id": 257233109,
  "nodes": [
    1588257526,
    1588257525,
    1588257524,
    1588257523,
    1588257521,
    10183845747,
    3677320542
  ],
  "tags": {
    "highway": "secondary",
    "lit": "yes",
    "name": "丸の内室町線",
    "name:en": "Marunouchi-Muromachi Line",
    "name:es": "Ruta Marunouchi-Muromachi",
    "oneway": "yes",
    "ref": "407",
    "sidewalk:left": "separate",
    "sidewalk:right": "no",
    "surface": "asphalt"
  }
},
{
  "type": "way",
  "id": 257357817,
  "nodes": [
    1136631242,
    2743158855,
    3558103128
  ],
  "tags": {
    "cycleway": "shared_lane",
    "cycleway:left": "shared_lane",
    "cycleway:smoothness": "excellent",
    "cycleway:surface": "asphalt",
    "foot": "no",
    "highway": "secondary",
    "lanes": "4",
    "lit": "yes",
    "maxspeed": "60",
    "name": "外堀通り",
    "name:en": "Sotobori-dori Avenue",
    "name:es": "Calle Sotobori",
    "name:ja": "外堀通り",
    "name:ja_rm": "Sotobori Dōri",
    "oneway": "yes",
    "ref": "405",
    "source": "Bing 2010",
    "surface": "asphalt"
  }
},
{
  "type": "way",
  "id": 273211116,
  "nodes": [
    2091867924,
    1136631242
  ],
  "tags": {
    "cycleway": "shared_lane",
    "cycleway:smoothness": "excellent",
    "cycleway:surface": "asphalt",
    "highway": "secondary",
    "lanes": "4",
    "lit": "yes",
    "maxspeed": "60",
    "name": "外堀通り",
    "name:en": "Sotobori-dori Avenue",
    "name:ja": "外堀通り",
    "name:ja_rm": "Sotobori Dōri",
    "oneway": "yes",
    "ref": "405",
    "source": "Bing 2010",
    "surface": "asphalt"
  }
},
{
  "type": "way",
  "id": 286703470,
  "nodes": [
    1588257788,
    2392361030,
    1588257786,
    1588257784,
    6233123680,
    1588257782,
    1588257781,
    1588257777,
    12400548755,
    5415072327,
    12400548734,
    12400548735,
    12400548740,
    8869066676
  ],
  "tags": {
    "highway": "secondary",
    "lanes": "3",
    "name": "丸の内室町線",
    "name:en": "Marunouchi-Muromachi Line",
    "name:ja": "丸の内室町線",
    "official_name": "特例都道丸の内室町線",
    "oneway": "yes",
    "ref": "407",
    "surface": "asphalt"
  }
},
{
  "type": "way",
  "id": 286703474,
  "nodes": [
    1588249096,
    2912891597,
    2912891557,
    1588249072,
    1588257645,
    1588249065
  ],
  "tags": {
    "foot": "no",
    "highway": "secondary",
    "lit": "yes",
    "name": "錦町有楽町線",
    "name:en": "Nishikicho-Yurakucho Line",
    "name:ja": "錦町有楽町線",
    "official_name": "特例都道錦町有楽町線",
    "ref": "402",
    "surface": "asphalt"
  }
},
{
  "type": "way",
  "id": 287006577,
  "nodes": [
    1072641451,
    2392361034,
    11199203063,
    6483314737,
    1588249096
  ],
  "tags": {
    "cycleway": "shared_lane",
    "highway": "secondary",
    "lit": "yes",
    "maxspeed": "40",
    "maxspeed:type": "sign",
    "name": "錦町有楽町線",
    "name:en": "Nishikicho-Yurakucho Line",
    "name:ja": "錦町有楽町線",
    "official_name": "特例都道錦町有楽町線",
    "ref": "402",
    "surface": "asphalt"
  }
},
{
  "type": "way",
  "id": 287006578,
  "nodes": [
    5295049568,
    265886511,
    1588257783,
    1588257785,
    1588257787,
    12400548746,
    265886513,
    12620211108,
    2392361038,
    860369068
  ],
  "tags": {
    "highway": "secondary",
    "lanes": "3",
    "name": "丸の内室町線",
    "name:en": "Marunouchi-Muromachi Line",
    "name:ja": "丸の内室町線",
    "official_name": "特例都道丸の内室町線",
    "oneway": "yes",
    "ref": "407",
    "surface": "asphalt"
  }
},
{
  "type": "way",
  "id": 387627973,
  "nodes": [
    4708955636,
    9958550506,
    4708955623,
    4708955624,
    4708955625,
    1588257533
  ],
  "tags": {
    "highway": "secondary",
    "lit": "yes",
    "name": "丸の内室町線",
    "name:en": "Marunouchi Muromachi Line",
    "name:es": "Ruta Marunouchi-Muromachi",
    "oneway": "yes",
    "psv": "yes",
    "ref": "407",
    "sidewalk:left": "separate",
    "sidewalk:right": "no",
    "surface": "asphalt"
  }
},
{
  "type": "way",
  "id": 477949432,
  "nodes": [
    4708955631,
    4708955636
  ],
  "tags": {
    "highway": "secondary",
    "lanes": "2",
    "lit": "yes",
    "name": "丸の内室町線",
    "name:en": "Marunouchi Muromachi Line",
    "name:es": "Ruta Marunouchi-Muromachi",
    "oneway": "yes",
    "psv": "yes",
    "ref": "407",
    "surface": "asphalt"
  }
},
{
  "type": "way",
  "id": 893375978,
  "nodes": [
    12188438023,
    2743194514,
    2743185211,
    914718368,
    2743185207,
    6397112225,
    9987888771,
    3790005970,
    236621453
  ],
  "tags": {
    "foot": "no",
    "highway": "secondary",
    "lanes": "4",
    "maxspeed": "50",
    "name": "八重洲通り",
    "name:en": "Yaesu-dori Avenue",
    "name:es": "Calle Yaesu",
    "oneway": "yes",
    "ref": "408",
    "surface": "asphalt"
  }
},
{
  "type": "way",
  "id": 893375979,
  "nodes": [
    499185536,
    261023335
  ],
  "tags": {
    "highway": "secondary",
    "lanes": "4",
    "maxspeed": "60",
    "name": "外堀通り",
    "name:en": "Sotobori-dori Avenue",
    "name:es": "Calle Sotobori",
    "name:ja": "外堀通り",
    "name:ja_rm": "Sotobori Dōri",
    "oneway": "yes",
    "ref": "405",
    "surface": "asphalt"
  }
},
{
  "type": "way",
  "id": 893375980,
  "nodes": [
    3558103128,
    1136631230,
    574331741,
    10116551479,
    6244220943,
    6397151195,
    574331742,
    2743131845,
    2130347704
  ],
  "tags": {
    "cycleway:left": "shared_lane",
    "foot": "no",
    "highway": "secondary",
    "lanes": "4",
    "maxspeed": "60",
    "name": "外堀通り",
    "name:en": "Sotobori-dori Avenue",
    "name:es": "Calle Sotobori",
    "name:ja": "外堀通り",
    "name:ja_rm": "Sotobori Dōri",
    "oneway": "yes",
    "ref": "405",
    "source": "Bing 2010",
    "surface": "asphalt"
  }
},
{
  "type": "way",
  "id": 958539574,
  "nodes": [
    8869066680,
    12400548741,
    1588257757
  ],
  "tags": {
    "highway": "secondary",
    "lanes": "4",
    "name": "丸の内室町線",
    "name:en": "Marunouchi-Muromachi Line",
    "name:ja": "丸の内室町線",
    "official_name": "特例都道丸の内室町線",
    "oneway": "yes",
    "ref": "407",
    "surface": "asphalt"
  }
},
{
  "type": "way",
  "id": 958539575,
  "nodes": [
    8869066675,
    8869066680
  ],
  "tags": {
    "highway": "secondary",
    "lanes": "3",
    "name": "丸の内室町線",
    "name:en": "Marunouchi-Muromachi Line",
    "name:ja": "丸の内室町線",
    "official_name": "特例都道丸の内室町線",
    "oneway": "yes",
    "ref": "407",
    "surface": "asphalt"
  }
},
{
  "type": "way",
  "id": 958705067,
  "nodes": [
    8869066676,
    8869066675
  ],
  "tags": {
    "highway": "secondary",
    "lanes": "3",
    "name": "丸の内室町線",
    "name:en": "Marunouchi-Muromachi Line",
    "name:ja": "丸の内室町線",
    "official_name": "特例都道丸の内室町線",
    "oneway": "yes",
    "ref": "407",
    "surface": "asphalt"
  }
},
{
  "type": "way",
  "id": 958705068,
  "nodes": [
    261022523,
    1588257788
  ],
  "tags": {
    "highway": "secondary",
    "lanes": "3",
    "name": "丸の内室町線",
    "name:en": "Marunouchi-Muromachi Line",
    "name:ja": "丸の内室町線",
    "official_name": "特例都道丸の内室町線",
    "oneway": "yes",
    "ref": "407",
    "surface": "asphalt"
  }
},
{
  "type": "way",
  "id": 974064478,
  "nodes": [
    860369068,
    261022523
  ],
  "tags": {
    "highway": "secondary",
    "lanes": "3",
    "name": "丸の内室町線",
    "name:en": "Marunouchi-Muromachi Line",
    "name:ja": "丸の内室町線",
    "official_name": "特例都道丸の内室町線",
    "oneway": "yes",
    "oneway:conditional": "no @ (20:00-08:00)",
    "ref": "407",
    "surface": "asphalt"
  }
},
{
  "type": "way",
  "id": 974064481,
  "nodes": [
    3961265816,
    3961265818
  ],
  "tags": {
    "access:conditional": "no @ (08:00-20:00)",
    "highway": "secondary",
    "maxheight": "4",
    "name": "江戸通り(8時から20時右折禁止)",
    "name:en": "Edo-dori",
    "name:es": "Calle Edo",
    "name:ja": "江戸通り",
    "name:ja_kana": "えどどおり",
    "name:ja_rm": "Edo Dōri",
    "oneway": "yes",
    "ref": "407",
    "source": "Bing 2010",
    "surface": "paved"
  }
},
{
  "type": "way",
  "id": 1031963664,
  "nodes": [
    914718372,
    2743185214,
    2743194518,
    1136641983
  ],
  "tags": {
    "cycleway": "shared_lane",
    "cycleway:smoothness": "excellent",
    "cycleway:surface": "asphalt",
    "foot": "no",
    "highway": "secondary",
    "lanes": "3",
    "lit": "yes",
    "maxspeed": "50",
    "name": "八重洲通り",
    "name:en": "Yaesu-dori Avenue",
    "name:es": "Calle Yaesu",
    "oneway": "yes",
    "ref": "408",
    "surface": "asphalt"
  }
},
{
  "type": "way",
  "id": 1069975920,
  "nodes": [
    7411500389,
    12550438580,
    2743158899,
    2091867924
  ],
  "tags": {
    "cycleway:left": "shared_lane",
    "highway": "secondary",
    "lanes": "4",
    "maxspeed": "60",
    "name": "外堀通り",
    "name:en": "Sotobori-dori Avenue",
    "name:es": "Calle Sotobori",
    "name:ja": "外堀通り",
    "name:ja_rm": "Sotobori Dōri",
    "oneway": "yes",
    "ref": "405",
    "source": "Bing 2010",
    "surface": "asphalt"
  }
},
{
  "type": "way",
  "id": 1104965191,
  "nodes": [
    265886495,
    2628274816,
    4708955620,
    3925244012,
    4708955619,
    6233123669
  ],
  "tags": {
    "highway": "secondary",
    "lanes": "3",
    "lit": "yes",
    "name": "丸の内室町線",
    "name:en": "Marunouchi-Muromachi Line",
    "name:es": "Ruta Marunouchi-Muromachi",
    "oneway": "yes",
    "ref": "407",
    "sidewalk:left": "separate",
    "sidewalk:right": "no",
    "surface": "asphalt",
    "turn:lanes": "slight_left|slight_left|slight_left;right"
  }
},
{
  "type": "way",
  "id": 1301435829,
  "nodes": [
    1588257533,
    1588257526
  ],
  "tags": {
    "highway": "secondary",
    "lanes": "2",
    "lit": "yes",
    "name": "丸の内室町線",
    "name:en": "Marunouchi-Muromachi Line",
    "name:es": "Ruta Marunouchi-Muromachi",
    "oneway": "yes",
    "ref": "407",
    "sidewalk:left": "separate",
    "sidewalk:right": "no",
    "surface": "asphalt"
  }
},
{
  "type": "way",
  "id": 1316950554,
  "nodes": [
    499185536,
    2743158872,
    499185532
  ],
  "tags": {
    "highway": "secondary",
    "lanes": "2",
    "maxspeed": "50",
    "name": "八重洲通り",
    "name:en": "Yaesu-dori Avenue",
    "name:es": "Calle Yaesu",
    "oneway": "yes",
    "ref": "408",
    "surface": "asphalt"
  }
},
{
  "type": "way",
  "id": 1316950555,
  "nodes": [
    499185532,
    12188438023
  ],
  "tags": {
    "highway": "secondary",
    "lanes": "3",
    "maxspeed": "50",
    "name": "八重洲通り",
    "name:en": "Yaesu-dori Avenue",
    "name:es": "Calle Yaesu",
    "oneway": "yes",
    "ref": "408",
    "surface": "asphalt"
  }
},
{
  "type": "way",
  "id": 1340584965,
  "nodes": [
    1588257757,
    8869066673,
    12400548759,
    12531890046,
    5295049568
  ],
  "tags": {
    "highway": "secondary",
    "lanes": "2",
    "name": "丸の内室町線",
    "name:en": "Marunouchi-Muromachi Line",
    "name:ja": "丸の内室町線",
    "official_name": "特例都道丸の内室町線",
    "oneway": "yes",
    "ref": "407",
    "surface": "asphalt"
  }
},
{
  "type": "way",
  "id": 1358972606,
  "nodes": [
    499185504,
    12550438581,
    2743158838,
    499185536
  ],
  "tags": {
    "destination": "銀座(左折禁止)",
    "highway": "secondary",
    "lanes": "4",
    "maxspeed": "60",
    "name": "外堀通り",
    "name:en": "Sotobori-dori Avenue",
    "name:es": "Calle Sotobori",
    "name:ja": "外堀通り",
    "name:ja_rm": "Sotobori Dōri",
    "oneway": "yes",
    "ref": "405",
    "surface": "asphalt"
  }
},
{
  "type": "node",
  "id": 265886495,
  "lat": 35.6797519,
  "lon": 139.7655022
},
{
  "type": "node",
  "id": 1588257521,
  "lat": 35.6794665,
  "lon": 139.7657809
},
{
  "type": "node",
  "id": 1588257523,
  "lat": 35.6795232,
  "lon": 139.7657836
},
{
  "type": "node",
  "id": 1588257524,
  "lat": 35.6795738,
  "lon": 139.7657695
},
{
  "type": "node",
  "id": 1588257525,
  "lat": 35.6796283,
  "lon": 139.7657425
},
{
  "type": "node",
  "id": 1588257526,
  "lat": 35.6800882,
  "lon": 139.7654298
},
{
  "type": "node",
  "id": 1588257533,
  "lat": 35.6802478,
  "lon": 139.7653173
},
{
  "type": "node",
  "id": 2628274816,
  "lat": 35.6801339,
  "lon": 139.7652442
},
{
  "type": "node",
  "id": 3677320542,
  "lat": 35.6789614,
  "lon": 139.7656068
},
{
  "type": "node",
  "id": 3925244012,
  "lat": 35.6802105,
  "lon": 139.7651551
},
{
  "type": "node",
  "id": 4708955619,
  "lat": 35.6802287,
  "lon": 139.7651049
},
{
  "type": "node",
  "id": 4708955620,
  "lat": 35.6801890,
  "lon": 139.7651860
},
{
  "type": "node",
  "id": 4708955623,
  "lat": 35.6803203,
  "lon": 139.7652215
},
{
  "type": "node",
  "id": 4708955624,
  "lat": 35.6803070,
  "lon": 139.7652561
},
{
  "type": "node",
  "id": 4708955625,
  "lat": 35.6802838,
  "lon": 139.7652887
},
{
  "type": "node",
  "id": 4708955631,
  "lat": 35.6803805,
  "lon": 139.7649649
},
{
  "type": "node",
  "id": 4708955636,
  "lat": 35.6803555,
  "lon": 139.7650753
},
{
  "type": "node",
  "id": 6233123669,
  "lat": 35.6802609,
  "lon": 139.7649804
},
{
  "type": "node",
  "id": 7411500389,
  "lat": 35.6793670,
  "lon": 139.7683058
},
{
  "type": "node",
  "id": 9958550506,
  "lat": 35.6803261,
  "lon": 139.7652017
},
{
  "type": "node",
  "id": 10183845747,
  "lat": 35.6790143,
  "lon": 139.7656251
},
{
  "type": "node",
  "id": 236621453,
  "lat": 35.6793882,
  "lon": 139.7716723
},
{
  "type": "node",
  "id": 261023335,
  "lat": 35.6802984,
  "lon": 139.7690803
},
{
  "type": "node",
  "id": 499185504,
  "lat": 35.6810732,
  "lon": 139.7695673
},
{
  "type": "node",
  "id": 499185532,
  "lat": 35.6802888,
  "lon": 139.7695124
},
{
  "type": "node",
  "id": 499185536,
  "lat": 35.6804289,
  "lon": 139.7691597
},
{
  "type": "node",
  "id": 914718368,
  "lat": 35.6798913,
  "lon": 139.7704590
},
{
  "type": "node",
  "id": 914718372,
  "lat": 35.6797479,
  "lon": 139.7703688
},
{
  "type": "node",
  "id": 1136631230,
  "lat": 35.6809530,
  "lon": 139.7693035
},
{
  "type": "node",
  "id": 1136631242,
  "lat": 35.6804900,
  "lon": 139.7690096
},
{
  "type": "node",
  "id": 1136641976,
  "lat": 35.6797323,
  "lon": 139.7687320
},
{
  "type": "node",
  "id": 1136641983,
  "lat": 35.6800349,
  "lon": 139.7696827
},
{
  "type": "node",
  "id": 2091867924,
  "lat": 35.6803661,
  "lon": 139.7689314
},
{
  "type": "node",
  "id": 2743158838,
  "lat": 35.6805395,
  "lon": 139.7692237
},
{
  "type": "node",
  "id": 2743158855,
  "lat": 35.6805993,
  "lon": 139.7690820
},
{
  "type": "node",
  "id": 2743158872,
  "lat": 35.6803705,
  "lon": 139.7693075
},
{
  "type": "node",
  "id": 2743158889,
  "lat": 35.6802349,
  "lon": 139.7692237
},
{
  "type": "node",
  "id": 2743158895,
  "lat": 35.6802113,
  "lon": 139.7690223
},
{
  "type": "node",
  "id": 2743158899,
  "lat": 35.6802736,
  "lon": 139.7688764
},
{
  "type": "node",
  "id": 2743185207,
  "lat": 35.6798516,
  "lon": 139.7705547
},
{
  "type": "node",
  "id": 2743185211,
  "lat": 35.6799298,
  "lon": 139.7703681
},
{
  "type": "node",
  "id": 2743185214,
  "lat": 35.6797881,
  "lon": 139.7702742
},
{
  "type": "node",
  "id": 2743194514,
  "lat": 35.6799627,
  "lon": 139.7702905
},
{
  "type": "node",
  "id": 2743194518,
  "lat": 35.6798221,
  "lon": 139.7701945
},
{
  "type": "node",
  "id": 3558103128,
  "lat": 35.6807095,
  "lon": 139.7691518
},
{
  "type": "node",
  "id": 3790005970,
  "lat": 35.6794440,
  "lon": 139.7715378
},
{
  "type": "node",
  "id": 6397112225,
  "lat": 35.6798080,
  "lon": 139.7706599
},
{
  "type": "node",
  "id": 9987888771,
  "lat": 35.6794619,
  "lon": 139.7714945
},
{
  "type": "node",
  "id": 12188438023,
  "lat": 35.6802057,
  "lon": 139.7697170
},
{
  "type": "node",
  "id": 12550438580,
  "lat": 35.6802421,
  "lon": 139.7688563
},
{
  "type": "node",
  "id": 12550438581,
  "lat": 35.6805811,
  "lon": 139.7692505
},
{
  "type": "node",
  "id": 12550438582,
  "lat": 35.6802048,
  "lon": 139.7692928
},
{
  "type": "node",
  "id": 255334831,
  "lat": 35.6848263,
  "lon": 139.7657432
},
{
  "type": "node",
  "id": 258768566,
  "lat": 35.6865425,
  "lon": 139.7661882
},
{
  "type": "node",
  "id": 258768641,
  "lat": 35.6859969,
  "lon": 139.7660682
},
{
  "type": "node",
  "id": 261022523,
  "lat": 35.6843970,
  "lon": 139.7676790
},
{
  "type": "node",
  "id": 265886511,
  "lat": 35.6830465,
  "lon": 139.7668158
},
{
  "type": "node",
  "id": 265886513,
  "lat": 35.6832670,
  "lon": 139.7670500
},
{
  "type": "node",
  "id": 589929557,
  "lat": 35.6864799,
  "lon": 139.7661740
},
{
  "type": "node",
  "id": 727443849,
  "lat": 35.6827188,
  "lon": 139.7656197
},
{
  "type": "node",
  "id": 860369068,
  "lat": 35.6842978,
  "lon": 139.7675572
},
{
  "type": "node",
  "id": 1072641451,
  "lat": 35.6846992,
  "lon": 139.7656902
},
{
  "type": "node",
  "id": 1588249065,
  "lat": 35.6815023,
  "lon": 139.7646024
},
{
  "type": "node",
  "id": 1588249072,
  "lat": 35.6818702,
  "lon": 139.7647284
},
{
  "type": "node",
  "id": 1588249096,
  "lat": 35.6829592,
  "lon": 139.7650840
},
{
  "type": "node",
  "id": 1588257645,
  "lat": 35.6816857,
  "lon": 139.7646644
},
{
  "type": "node",
  "id": 1588257757,
  "lat": 35.6827280,
  "lon": 139.7659894
},
{
  "type": "node",
  "id": 1588257777,
  "lat": 35.6827945,
  "lon": 139.7665591
},
{
  "type": "node",
  "id": 1588257781,
  "lat": 35.6829463,
  "lon": 139.7668836
},
{
  "type": "node",
  "id": 1588257782,
  "lat": 35.6830142,
  "lon": 139.7669988
},
{
  "type": "node",
  "id": 1588257783,
  "lat": 35.6830891,
  "lon": 139.7668920
},
{
  "type": "node",
  "id": 1588257784,
  "lat": 35.6830934,
  "lon": 139.7670764
},
{
  "type": "node",
  "id": 1588257785,
  "lat": 35.6831528,
  "lon": 139.7669628
},
{
  "type": "node",
  "id": 1588257786,
  "lat": 35.6831899,
  "lon": 139.7671364
},
{
  "type": "node",
  "id": 1588257787,
  "lat": 35.6831923,
  "lon": 139.7669949
},
{
  "type": "node",
  "id": 1588257788,
  "lat": 35.6842658,
  "lon": 139.7676845
},
{
  "type": "node",
  "id": 2130007120,
  "lat": 35.6842476,
  "lon": 139.7683892
},
{
  "type": "node",
  "id": 2392361019,
  "lat": 35.6843324,
  "lon": 139.7684210
},
{
  "type": "node",
  "id": 2392361030,
  "lat": 35.6841456,
  "lon": 139.7676340
},
{
  "type": "node",
  "id": 2392361034,
  "lat": 35.6845883,
  "lon": 139.7656440
},
{
  "type": "node",
  "id": 2392361038,
  "lat": 35.6841823,
  "lon": 139.7675004
},
{
  "type": "node",
  "id": 2695200245,
  "lat": 35.6847633,
  "lon": 139.7657169
},
{
  "type": "node",
  "id": 2912891557,
  "lat": 35.6819851,
  "lon": 139.7647663
},
{
  "type": "node",
  "id": 2912891582,
  "lat": 35.6828041,
  "lon": 139.7652513
},
{
  "type": "node",
  "id": 2912891597,
  "lat": 35.6827050,
  "lon": 139.7650042
},
{
  "type": "node",
  "id": 3961265816,
  "lat": 35.6841296,
  "lon": 139.7682935
},
{
  "type": "node",
  "id": 3961265818,
  "lat": 35.6842678,
  "lon": 139.7682941
},
{
  "type": "node",
  "id": 5295049568,
  "lat": 35.6827706,
  "lon": 139.7661980
},
{
  "type": "node",
  "id": 5415072327,
  "lat": 35.6826326,
  "lon": 139.7662075
},
{
  "type": "node",
  "id": 6188927671,
  "lat": 35.6863856,
  "lon": 139.7661514
},
{
  "type": "node",
  "id": 6188927675,
  "lat": 35.6859352,
  "lon": 139.7660547
},
{
  "type": "node",
  "id": 6188927996,
  "lat": 35.6849224,
  "lon": 139.7657833
},
{
  "type": "node",
  "id": 6233123680,
  "lat": 35.6830484,
  "lon": 139.7670408
},
{
  "type": "node",
  "id": 6483314737,
  "lat": 35.6831127,
  "lon": 139.7651372
},
{
  "type": "node",
  "id": 8869066673,
  "lat": 35.6827253,
  "lon": 139.7660424
},
{
  "type": "node",
  "id": 8869066675,
  "lat": 35.6826308,
  "lon": 139.7658282
},
{
  "type": "node",
  "id": 8869066676,
  "lat": 35.6826132,
  "lon": 139.7659099
},
{
  "type": "node",
  "id": 8869066680,
  "lat": 35.6826989,
  "lon": 139.7657144
},
{
  "type": "node",
  "id": 10155199760,
  "lat": 35.6843554,
  "lon": 139.7683258
},
{
  "type": "node",
  "id": 11199203063,
  "lat": 35.6842481,
  "lon": 139.7655176
},
{
  "type": "node",
  "id": 11199203064,
  "lat": 35.6852980,
  "lon": 139.7658998
},
{
  "type": "node",
  "id": 11199203065,
  "lat": 35.6851135,
  "lon": 139.7658503
},
{
  "type": "node",
  "id": 12400548734,
  "lat": 35.6826068,
  "lon": 139.7661203
},
{
  "type": "node",
  "id": 12400548735,
  "lat": 35.6825992,
  "lon": 139.7660528
},
{
  "type": "node",
  "id": 12400548740,
  "lat": 35.6826015,
  "lon": 139.7659829
},
{
  "type": "node",
  "id": 12400548741,
  "lat": 35.6827572,
  "lon": 139.7658371
},
{
  "type": "node",
  "id": 12400548746,
  "lat": 35.6832401,
  "lon": 139.7670301
},
{
  "type": "node",
  "id": 12400548755,
  "lat": 35.6826538,
  "lon": 139.7662535
},
{
  "type": "node",
  "id": 12400548759,
  "lat": 35.6827315,
  "lon": 139.7660935
},
{
  "type": "node",
  "id": 12531890046,
  "lat": 35.6827480,
  "lon": 139.7661455
},
{
  "type": "node",
  "id": 12620211105,
  "lat": 35.6843754,
  "lon": 139.7684373
},
{
  "type": "node",
  "id": 12620211108,
  "lat": 35.6841324,
  "lon": 139.7674759
},
{
  "type": "node",
  "id": 251724499,
  "lat": 35.6861808,
  "lon": 139.7689856
},
{
  "type": "node",
  "id": 307385365,
  "lat": 35.6818363,
  "lon": 139.7700972
},
{
  "type": "node",
  "id": 387769174,
  "lat": 35.6814131,
  "lon": 139.7697911
},
{
  "type": "node",
  "id": 574331741,
  "lat": 35.6815261,
  "lon": 139.7696605
},
{
  "type": "node",
  "id": 574331742,
  "lat": 35.6818949,
  "lon": 139.7699373
},
{
  "type": "node",
  "id": 2130007230,
  "lat": 35.6861468,
  "lon": 139.7691080
},
{
  "type": "node",
  "id": 2130347704,
  "lat": 35.6822708,
  "lon": 139.7701779
},
{
  "type": "node",
  "id": 2743131845,
  "lat": 35.6819560,
  "lon": 139.7699740
},
{
  "type": "node",
  "id": 6242281131,
  "lat": 35.6860386,
  "lon": 139.7690676
},
{
  "type": "node",
  "id": 6242281132,
  "lat": 35.6860788,
  "lon": 139.7689493
},
{
  "type": "node",
  "id": 6244220943,
  "lat": 35.6816918,
  "lon": 139.7697831
},
{
  "type": "node",
  "id": 6244220944,
  "lat": 35.6817247,
  "lon": 139.7700163
},
{
  "type": "node",
  "id": 6397151195,
  "lat": 35.6817564,
  "lon": 139.7698317
},
{
  "type": "node",
  "id": 10116551479,
  "lat": 35.6815439,
  "lon": 139.7696735
},
{
  "type": "node",
  "id": 10116551480,
  "lat": 35.6814671,
  "lon": 139.7698302
}

  ]
}
